{"fetched_at":"2026-03-29T16:36:15Z","count":15609,"tles":[{"name":"STARLINK-4799","line1":"1 53860U 22114AU  26087.59081749  .00000253  00000+0  33957-4 0  9998","line2":"2 53860  53.2169 199.3842 0001266  88.6738 271.4399 15.08841008195725","category":"Starlink"}]}